COSMOS 2433 (720)       
1 32275U 07052A   23047.18232758 -.00000062  00000+0  00000+0 0  9992
2 32275  66.0620 356.5802 0004460 275.4783 126.0861  2.13104153119162
COSMOS 2432 (719)       
1 32276U 07052B   23047.30284572 -.00000062  00000+0  00000+0 0  9998
2 32276  66.0765 356.6810 0012182 323.2913 118.3500  2.13103445119167
COSMOS 2434 (721)       
1 32393U 07065A   23047.06867883  .00000113  00000+0  00000+0 0  9993
2 32393  64.3522 233.1187 0005177  74.4657 130.3324  2.13103146117862
COSMOS 2436 (723)       
1 32395U 07065C   23046.31422196  .00000118  00000+0  00000+0 0  9991
2 32395  64.3609 233.2039 0016995   8.8929 112.7640  2.13102904117787
COSMOS 2456 (730)       
1 36111U 09070A   23047.17340751  .00000008  00000+0  00000+0 0  9998
2 36111  64.4220 112.6830 0004166 296.8765 150.3698  2.13099096102535
COSMOS 2457 (733)       
1 36112U 09070B   23047.43067361  .00000010  00000+0  00000+0 0  9994
2 36112  64.4050 112.5442 0005099 177.5968 236.2415  2.13101333102541
COSMOS 2460 (732)       
1 36402U 10007C   23046.59033097 -.00000060  00000+0  00000+0 0  9999
2 36402  65.9289 355.3493 0002466 317.5751 157.6945  2.13106398100871
COSMOS 2476 (744)       
1 37867U 11064A   23047.18118163  .00000008  00000+0  00000+0 0  9994
2 37867  64.7059 114.1329 0023090 236.2149 124.6063  2.13101848 87887
COSMOS 2477 (745)       
1 37868U 11064B   23046.47827103  .00000005  00000+0  00000+0 0  9994
2 37868  64.7141 114.2242 0020222 237.2767 122.2727  2.13101637 87816
COSMOS 2475 (743)       
1 37869U 11064C   23046.59352657  .00000005  00000+0  00000+0 0  9995
2 37869  64.7204 114.2308 0024562 253.7832 152.4307  2.13101794 87832
COSMOS 2485 (747)       
1 39155U 13019A   23047.08767998  .00000007  00000+0  00000+0 0  9992
2 39155  64.8679 114.6162 0023481 232.3550 101.1062  2.13101815 76347
COSMOS 2492 (754)       
1 39620U 14012A   23047.14800091 -.00000063  00000+0  00000+0 0  9995
2 39620  65.8138 354.9777 0015165 320.1423  93.9075  2.13103186 69304
COSMOS 2500 (755)       
1 40001U 14032A   23046.09702154 -.00000058  00000+0  00000+0 0  9990
2 40001  65.7527 354.8561 0005821 224.1505 321.6117  2.13102658 67491
COSMOS 2501 (702K)      
1 40315U 14075A   23047.28339481  .00000109  00000+0  00000+0 0  9992
2 40315  63.6573 232.6411 0017069 204.1094 340.9587  2.13101402 63927
COSMOS 2514 (751)       
1 41330U 16008A   23047.49165382 -.00000065  00000+0  00000+0 0  9990
2 41330  65.5512 354.4402 0009415 225.3147 134.6080  2.13102570 54699
COSMOS 2516 (753)       
1 41554U 16032A   23046.67341083  .00000115  00000+0  00000+0 0  9993
2 41554  63.8842 233.0065 0014010 211.8409 148.0999  2.13106367 52288
COSMOS 2522 (752)       
1 42939U 17055A   23047.33720678  .00000110  00000+0  00000+0 0  9997
2 42939  64.1172 233.4508 0004943 236.7910 125.1812  2.13101975 42053
COSMOS 2527 (756)       
1 43508U 18053A   23047.28938360  .00000009  00000+0  00000+0 0  9999
2 43508  65.0296 114.6606 0009025 230.4400 126.8082  2.13102566 36331
COSMOS 2529 (757)       
1 43687U 18086A   23047.16331498  .00000112  00000+0  00000+0 0  9994
2 43687  64.3323 233.8387 0006877 271.6275 272.4154  2.13102078 33356
COSMOS 2534 (758)       
1 44299U 19030A   23046.06804569  .00000119  00000+0  00000+0 0  9993
2 44299  64.4054 233.7831 0009952 296.1111 262.0278  2.13101995 28970
COSMOS 2544 (759)       
1 44850U 19088A   23047.23929079  .00000009  00000+0  16595+1 0  9998
2 44850  65.0150 114.5099 0013619 256.6979 105.3760  2.13102283 24777
COSMOS 2545 (760)       
1 45358U 20018A   23046.95743556 -.00000063  00000+0  00000+0 0  9993
2 45358  64.8909 354.8674 0010279 260.0459  94.9933  2.13102712 22713
COSMOS 2547 (705K)      
1 46805U 20075A   23046.68006645  .00000116  00000+0  00000+0 0  9993
2 46805  64.6307 233.2588 0005120 240.8099 115.3632  2.13103075 17957
COSMOS 2557 (706K)      
1 52984U 22075A   23045.66659491 -.00000057  00000+0  10000-3 0  9990
2 52984  64.8032 357.0930 0013690 285.6526 249.7786  2.13101874  4737
COSMOS 2559 (707K)      
1 54031U 22130A   23046.09702154 -.00000058  00000+0  00000+0 0  9996
2 54031  64.7706 357.2123 0006528 239.5555 311.2417  2.13101042  2727
COSMOS 2564 (761)       
1 54377U 22161A   23047.22908237  .00000112  00000+0  00000+0 0  9999
2 54377  64.7716 233.2574 0006697 209.0886 340.6628  2.13102278  1697
